sat_config_name,tle_name,norad_id,horizons_id,epoch_tle,t_obs,delta_t_min,incl_deg,raan_deg,ecc,argp_deg,M_deg,mean_motion_rev_per_day,x_sgp4,y_sgp4,z_sgp4,vx_sgp4,vy_sgp4,vz_sgp4,x_true,y_true,z_true,vx_true,vy_true,vz_true,err_x,err_y,err_z,err_vx,err_vy,err_vz,err_norm,horizons_ok,line1,line2
CHANDRA,CXO,25867,-151,2025-11-29T09:28:09.054336+00:00,2025-11-30T09:18:09.054336+00:00,1430.0,52.7584,123.0489,0.8164697,310.7158,0.2585,0.37803381,-18975.23606156316,-102977.11798809125,94249.63555549354,0.47410993629679593,-0.7069714309798879,-0.02439748647807671,-18981.128477340113,-102977.40900586924,94252.4588437762,0.4733204624708346,-0.7074980457197857,-0.02381280541965453,5.892415776954294,0.29101777798496187,-2.8232882826559944,0.0007894738259613399,0.0005266147398977905,-0.0005846810584221804,6.540352571733868,True,1 25867U 99040B   25333.39454924  .00000722  00000+0  00000+0 0  9995,2 25867  52.7584 123.0489 8164697 310.7158   0.2585  0.37803381 16565
CHANDRA,CXO,25867,-151,2025-11-29T09:28:09.054336+00:00,2025-11-30T09:23:09.054336+00:00,1435.0,52.7584,123.0489,0.8164697,310.7158,0.2585,0.37803381,-18832.946166748603,-103188.59718977414,94241.76393529066,0.47491609827174475,-0.7025674833541571,-0.02842525383692238,-18839.01149190989,-103188.99781050552,94244.71036758462,0.47412477790797697,-0.7030946015773023,-0.0278417878463345,6.0653251612857275,0.40062073137960397,-2.9464322939602425,0.0007913203637677779,0.0005271182231452176,-0.0005834659905878808,6.755007738369268,True,1 25867U 99040B   25333.39454924  .00000722  00000+0  00000+0 0  9995,2 25867  52.7584 123.0489 8164697 310.7158   0.2585  0.37803381 16565
CHANDRA,CXO,25867,-151,2025-11-29T09:28:09.054336+00:00,2025-11-30T09:28:09.054336+00:00,1440.0,52.7584,123.0489,0.8164697,310.7158,0.2585,0.37803381,-18690.415879582615,-103398.75527967734,94232.6848893443,0.4757139720741703,-0.6981666821548553,-0.03244157547475447,-18696.65445679292,-103399.26605622642,94235.75491692011,0.4749208051168876,-0.6986943092348374,-0.031859321933419185,6.238577210304356,0.5107765490829479,-3.070027575813583,0.0007931669572827094,0.000527627079982107,-0.000582253541335287,6.971786543510767,True,1 25867U 99040B   25333.39454924  .00000722  00000+0  00000+0 0  9995,2 25867  52.7584 123.0489 8164697 310.7158   0.2585  0.37803381 16565
